CAS-2T & KS-1Q          
1 41847U 16066G   20175.60778848  .00000064  00000-0  20428-4 0  9996
2 41847  98.6532 226.1872 0365106 210.4397 147.5138 14.38072590190305
NAYIF-1 (EO-88)         
1 42017U 17008BX  20176.10423539  .00000904  00000-0  37379-4 0  9999
2 42017  97.3595 243.5695 0004708 308.5031  51.5785 15.26515955186568
MAX VALIER SAT          
1 42778U 17036P   20175.58552996  .00000560  00000-0  26998-4 0  9998
2 42778  97.3043 229.0518 0012286   9.6011 350.5458 15.22631806166668
RADFXSAT (FOX-1B)       
1 43017U 17073E   20176.49363417  .00000546  00000-0  47562-4 0  9999
2 43017  97.7229  88.4573 0257797  27.7412 333.7280 14.78947055140201
FOX-1D (AO-92)          
1 43137U 18004AC  20175.65553797  .00000618  00000-0  28336-4 0  9994
2 43137  97.4454 246.7745 0010184  42.4133 317.7889 15.24135475135985
DIWATA-2B               
1 43678U 18084H   20176.45076596  .00000177  00000-0  23356-4 0  9995
2 43678  97.8852 294.8536 0010547 147.1850 213.0000 14.91637289 90060
ES'HAIL 2               
1 43700U 18090A   20176.36716108  .00000148  00000-0  00000+0 0  9992
2 43700   0.0172  10.6985 0001045  99.2850 320.9473  1.00271166  6028
FOX-1CLIFF (AO-95)      
1 43770U 18099N   20176.46945195  .00000420  00000-0  43602-4 0  9992
2 43770  97.7054 247.7279 0015002 167.9914 192.1667 14.94993068 84960
ITASAT 1                
1 43786U 18099AE  20175.66178678  .00000063  00000-0  10912-4 0  9995
2 43786  97.7068 247.3582 0015667 164.9160 195.2531 14.95330735 84862
JY1SAT (JO-97)          
1 43803U 18099AX  20176.47849826  .00000650  00000-0  63774-4 0  9991
2 43803  97.7031 247.9784 0015776 162.0865 198.0915 14.95510187 84985
PSAT2 (NO-104)          
1 44354U 19036R   20175.56361811  .00005304  00000-0  74256-4 0  9995
2 44354  28.5313 340.4719 0364199  16.3364 344.8629 15.03520249 54744
BRICSAT2 (NO-103)       
1 44355U 19036S   20175.74843551  .00009791  00000-0  13413-3 0  9993
2 44355  28.5309 330.2543 0343013  32.9510 329.1978 15.08909662 54862
JAISAT-1                
1 44419U 19038F   20176.43441089  .00000535  00000-0  34044-4 0  9994
2 44419  97.5389 137.9480 0023241 105.2950 255.0852 15.12789785 53650
DUCHIFAT-3              
1 44854U 19089C   20176.02206809  .00000176  00000-0  20623-4 0  9996
2 44854  36.9677  59.5321 0006772 116.2701 243.8731 14.99072412 29288
RS-44 & BREEZE-KM R/B   
1 44909U 19096E   20175.53476616  .00000003  00000-0 -29898-4 0  9998
2 44909  82.5212 351.2721 0216819 212.0508 146.7257 12.79708041 22964
ORBITAL FACTORY 2 (OF-2)
1 45113U 19071C   20175.67563180  .00000802  00000-0  36077-4 0  9990
2 45113  51.6451 333.4906 0013589  81.0219 279.2301 15.33373950 22088
HUSKYSAT-1              
1 45119U 19071J   20175.97897869  .00001050  00000-0  43340-4 0  9990
2 45119  51.6447 331.7669 0012888  78.5845 281.6584 15.33589927 22121
